     2              NAVIGATION DATA                         RINEX VERSION / TYPE
CCRINEXN V1.6.0 UX  CDDIS               10-JAN-21 18:31     PGM / RUN BY / DATE 
IGS BROADCAST EPHEMERIS FILE                                COMMENT             
    0.7451D-08 -0.1490D-07 -0.5960D-07  0.1192D-06          ION ALPHA           
    0.9011D+05 -0.6554D+05 -0.1311D+06  0.4588D+06          ION BETA            
    0.186264514923D-08 0.710542735760D-14   147456     2140 DELTA-UTC: A0,A1,T,W
    18                                                      LEAP SECONDS        
                                                            END OF HEADER       
 7 21  1  9 16  0  0.0 0.151717104018D-04 0.145519152284D-10 0.000000000000D+00
    0.810000000000D+02 0.213750000000D+02 0.476912722472D-08 0.736949235134D+00
    0.140257179737D-05 0.143220555037D-01 0.109300017357D-04 0.515361640930D+04
    0.576000000000D+06-0.188127160072D-06 0.220689503388D+01 0.135973095894D-06
    0.951930376293D+00 0.166406250000D+03-0.235587183337D+01-0.819998441941D-08
   -0.692886004340D-09 0.100000000000D+01 0.213900000000D+04 0.000000000000D+00
    0.200000000000D+01 0.000000000000D+00-0.111758708954D-07 0.810000000000D+02
    0.568818000000D+06 0.400000000000D+01 0.000000000000D+00 0.000000000000D+00
 8 21  1  9 16  0  0.0-0.598561018705D-05-0.136424205266D-11 0.000000000000D+00
    0.900000000000D+02-0.471875000000D+01 0.451233081383D-08-0.265737529963D+01
   -0.206753611565D-06 0.604918960016D-02 0.940635800362D-06 0.515377662659D+04
    0.576000000000D+06-0.782310962677D-07-0.200830911553D+01 0.484287738800D-07
    0.968298532195D+00 0.368843750000D+03-0.456545513868D-01-0.842392231875D-08
   -0.242867259253D-10 0.100000000000D+01 0.213900000000D+04 0.000000000000D+00
    0.200000000000D+01 0.000000000000D+00 0.512227416039D-08 0.900000000000D+02
    0.568849000000D+06 0.400000000000D+01 0.000000000000D+00 0.000000000000D+00
 9 21  1  9 16  0  0.0-0.310922507197D-03-0.409272615798D-11 0.000000000000D+00
    0.130000000000D+02-0.571875000000D+01 0.528950604344D-08-0.227291966475D+01
   -0.223517417908D-06 0.202970043756D-02 0.571087002754D-05 0.515357641602D+04
    0.576000000000D+06-0.931322574616D-08 0.113345591809D+01 0.260770320892D-07
    0.952753579314D+00 0.267406250000D+03 0.178963403308D+01-0.829498837670D-08
    0.310727228751D-10 0.100000000000D+01 0.213900000000D+04 0.000000000000D+00
    0.200000000000D+01 0.000000000000D+00 0.139698386192D-08 0.130000000000D+02
    0.568818000000D+06 0.400000000000D+01 0.000000000000D+00 0.000000000000D+00
10 21  1  9 16  0  0.0-0.353832729161D-04-0.852651282912D-11 0.000000000000D+00
    0.470000000000D+02-0.119375000000D+02 0.443018453497D-08-0.634703305597D+00
   -0.508502125740D-06 0.638010527473D-02 0.962801277637D-05 0.515366630554D+04
    0.576000000000D+06 0.132247805595D-06 0.100495242304D+00 0.126659870148D-06
    0.968190308441D+00 0.196750000000D+03-0.262219729709D+01-0.789032866386D-08
    0.633240662730D-09 0.100000000000D+01 0.213900000000D+04 0.000000000000D+00
    0.200000000000D+01 0.000000000000D+00 0.232830643654D-08 0.470000000000D+02
    0.568818000000D+06 0.400000000000D+01 0.000000000000D+00 0.000000000000D+00
11 21  1  9 16  0  0.0-0.577284954488D-04 0.105728759081D-10 0.000000000000D+00
    0.630000000000D+02-0.117500000000D+03 0.564880672404D-08 0.799501877182D+00
   -0.632554292679D-05 0.154195282375D-01 0.313483178616D-05 0.515373379135D+04
    0.576000000000D+06 0.484287738800D-07-0.142465765421D+01-0.301748514175D-06
    0.913842237632D+00 0.295812500000D+03 0.207932576271D+01-0.909073580849D-08
   -0.164292557730D-09 0.100000000000D+01 0.213900000000D+04 0.000000000000D+00
    0.200000000000D+01 0.630000000000D+02-0.125728547573D-07 0.630000000000D+02
    0.568873000000D+06 0.400000000000D+01 0.000000000000D+00 0.000000000000D+00
12 21  1  9 16  0  0.0 0.152778811753D-04-0.522959453519D-11 0.000000000000D+00
    0.102000000000D+03 0.123343750000D+03 0.416481633846D-08 0.705838648099D-01
    0.644475221634D-05 0.819200079422D-02 0.609084963798D-05 0.515357837677D+04
    0.576000000000D+06-0.949949026108D-07-0.296759932442D+01 0.167638063431D-06
    0.975742424068D+00 0.270843750000D+03 0.116856177097D+01-0.808533678673D-08
    0.707172313708D-10 0.100000000000D+01 0.213900000000D+04 0.000000000000D+00
    0.280000000000D+01 0.000000000000D+00-0.125728547573D-07 0.102000000000D+03
    0.568818000000D+06 0.400000000000D+01 0.000000000000D+00 0.000000000000D+00
13 21  1  9 16  0  0.0 0.840653665364D-04 0.409272615798D-11 0.000000000000D+00
    0.170000000000D+02-0.131875000000D+02 0.480698594455D-08 0.291021177359D+01
   -0.771135091782D-06 0.491986516863D-02 0.646337866783D-05 0.515367496872D+04
    0.576000000000D+06-0.391155481338D-07 0.127996116283D+01-0.126659870148D-06
    0.967594356577D+00 0.258125000000D+03 0.104265364474D+01-0.801319092442D-08
   -0.212151694112D-09 0.100000000000D+01 0.213900000000D+04 0.000000000000D+00
    0.200000000000D+01 0.000000000000D+00-0.116415321827D-07 0.170000000000D+02
    0.568818000000D+06 0.400000000000D+01 0.000000000000D+00 0.000000000000D+00
14 21  1  9 16  0  0.0 0.825673341751D-04 0.670752342558D-11 0.000000000000D+00
    0.212000000000D+03 0.123687500000D+03 0.443732768965D-08 0.123872849347D+01
    0.624172389507D-05 0.242492184043D-03 0.711344182491D-05 0.515374336815D+04
    0.576000000000D+06 0.186264514923D-08-0.299255472753D+01 0.931322574616D-08
    0.959261654195D+00 0.242093750000D+03 0.186667970798D+01-0.811069498586D-08
    0.135719938994D-10 0.100000000000D+01 0.213900000000D+04 0.000000000000D+00
    0.200000000000D+01 0.000000000000D+00-0.232830643654D-08 0.724000000000D+03
    0.575448000000D+06 0.400000000000D+01 0.000000000000D+00 0.000000000000D+00
15 21  1  9 16  0  0.0-0.177485868335D-03 0.261479726760D-11 0.000000000000D+00
    0.720000000000D+02-0.102187500000D+02 0.573238163385D-08 0.257469451255D+01
   -0.694766640663D-06 0.131128651556D-01 0.553578138351D-05 0.515379061508D+04
    0.576000000000D+06-0.316649675369D-07 0.103799745884D+01-0.203028321266D-06
    0.928431242305D+00 0.255156250000D+03 0.965448232348D+00-0.834356182856D-08
   -0.607168148133D-11 0.100000000000D+01 0.213900000000D+04 0.000000000000D+00
    0.200000000000D+01 0.000000000000D+00-0.107102096081D-07 0.720000000000D+02
    0.568818000000D+06 0.400000000000D+01 0.000000000000D+00 0.000000000000D+00
16 21  1  9 16  0  0.0-0.262623652816D-03-0.557065504836D-11 0.000000000000D+00
    0.150000000000D+02 0.137875000000D+03 0.407945544012D-08-0.179757905631D+01
    0.702589750290D-05 0.120229619788D-01 0.603869557381D-05 0.515363373756D+04
    0.576000000000D+06 0.949949026108D-07-0.294880238511D+01-0.186264514923D-06
    0.975879657488D+00 0.271468750000D+03 0.638536607396D+00-0.788139953301D-08
    0.257153576211D-09 0.100000000000D+01 0.213900000000D+04 0.000000000000D+00
    0.200000000000D+01 0.000000000000D+00-0.107102096081D-07 0.150000000000D+02
    0.570510000000D+06 0.000000000000D+00 0.000000000000D+00 0.000000000000D+00
17 21  1  9 16  0  0.0 0.378072727472D-03 0.488853402203D-11 0.000000000000D+00
    0.210000000000D+02-0.227187500000D+02 0.408802742561D-08-0.281418113783D+01
   -0.110454857349D-05 0.136120243697D-01 0.962987542152D-06 0.515352921104D+04
    0.576000000000D+06 0.176951289177D-06-0.193232754968D+01-0.558793544769D-08
    0.982858211213D+00 0.373000000000D+03-0.159039765015D+01-0.795318842508D-08
   -0.246438836595D-10 0.100000000000D+01 0.213900000000D+04 0.000000000000D+00
    0.200000000000D+01 0.000000000000D+00-0.111758708954D-07 0.210000000000D+02
    0.568818000000D+06 0.400000000000D+01 0.000000000000D+00 0.000000000000D+00
18 21  1  9 16  0  0.0 0.339967198670D-03 0.295585778076D-11 0.000000000000D+00
    0.680000000000D+02-0.118906250000D+03 0.408838458334D-08 0.151742114332D+01
   -0.615790486336D-05 0.119111011736D-02 0.951811671257D-05 0.515370221710D+04
    0.576000000000D+06-0.484287738800D-07-0.921276329417D+00 0.391155481338D-07
    0.966510565422D+00 0.198250000000D+03 0.303005396998D+01-0.788997150613D-08
   -0.357157734196D-12 0.100000000000D+01 0.213900000000D+04 0.000000000000D+00
    0.200000000000D+01 0.000000000000D+00-0.838190317154D-08 0.680000000000D+02
    0.568818000000D+06 0.400000000000D+01 0.000000000000D+00 0.000000000000D+00
19 21  1  9 16  0  0.0-0.541424378753D-04 0.500222085975D-11 0.000000000000D+00
    0.480000000000D+02-0.306562500000D+02 0.413481508879D-08-0.234681700098D+00
   -0.153668224812D-05 0.899888016283D-02 0.203214585781D-05 0.515361295891D+04
    0.576000000000D+06-0.195577740669D-06-0.188699197880D+01-0.447034835815D-07
    0.981239365084D+00 0.353343750000D+03 0.176727772484D+01-0.830677458193D-08
   -0.442875590403D-10 0.100000000000D+01 0.213900000000D+04 0.000000000000D+00
    0.200000000000D+01 0.000000000000D+00-0.153668224812D-07 0.480000000000D+02
    0.568818000000D+06 0.400000000000D+01 0.000000000000D+00 0.000000000000D+00
20 21  1  9 16  0  0.0 0.525238923728D-03-0.113686837722D-12 0.000000000000D+00
    0.280000000000D+02-0.200000000000D+02 0.506163940903D-08 0.798243564288D+00
   -0.103935599327D-05 0.588293233886D-02 0.990554690361D-05 0.515366588211D+04
    0.576000000000D+06 0.121071934700D-06-0.377871198595D-01 0.521540641785D-07
    0.936957283940D+00 0.175718750000D+03 0.282271706733D+01-0.820819904729D-08
    0.602525097589D-09 0.100000000000D+01 0.213900000000D+04 0.000000000000D+00
    0.200000000000D+01 0.000000000000D+00-0.838190317154D-08 0.280000000000D+02
    0.568818000000D+06 0.400000000000D+01 0.000000000000D+00 0.000000000000D+00
